{"type": "FeatureCollection", "features": [ {"type": "Feature", "properties": {"norad_id": 34979, "name": "COSMOS 2251 DEB", "group": "cosmos-2251-debris", "lat": -72.63786130358413, "lon": 148.7434444171721, "alt_km": 630.0609759230056, "timestamp": "2025-12-15T04:01:20.847748+00:00", "meta": {"OBJECT_NAME": "COSMOS 2251 DEB", "OBJECT_ID": "1993-036AFJ", "EPOCH": "2025-12-13T19:59:51.046080", "MEAN_MOTION": 14.79384637, "ECCENTRICITY": 0.00490737, "INCLINATION": 74.0396, "RA_OF_ASC_NODE": 265.1118, "ARG_OF_PERICENTER": 342.7793, "MEAN_ANOMALY": 17.1715, "EPHEMERIS_TYPE": 0, "CLASSIFICATION_TYPE": "U", "NORAD_CAT_ID": 34979, "ELEMENT_SET_NO": 999, "REV_AT_EPOCH": 88236, "BSTAR": 0.0014769456, "MEAN_MOTION_DOT": 0.00011222, "MEAN_MOTION_DDOT": 0}, "tle": {"line1": "1 34979U 93036AFJ 25347.83322970  .00011222  00000+0  14769-2 0  9994", "line2": "2 34979  74.0396 265.1118 0049073 342.7793  17.1715 14.79384637882366"}}, "geometry": {"type": "Point", "coordinates": [148.7434444171721, -72.63786130358413]}}, {"type": "Feature", "properties": {"norad_id": 34990, "name": "COSMOS 2251 DEB", "group": "cosmos-2251-debris", "lat": 42.51702385753152, "lon": -97.95883441841903, "alt_km": 747.9436783011115, "timestamp": "2025-12-15T04:01:20.847758+00:00", "meta": {"OBJECT_NAME": "COSMOS 2251 DEB", "OBJECT_ID": "1993-036AFN", "EPOCH": "2025-12-13T23:31:06.015936", "MEAN_MOTION": 14.42379588, "ECCENTRICITY": 0.00165206, "INCLINATION": 74.0455, "RA_OF_ASC_NODE": 249.0358, "ARG_OF_PERICENTER": 311.5177, "MEAN_ANOMALY": 48.4561, "EPHEMERIS_TYPE": 0, "CLASSIFICATION_TYPE": "U", "NORAD_CAT_ID": 34990, "ELEMENT_SET_NO": 999, "REV_AT_EPOCH": 87364, "BSTAR": 0.0004974881, "MEAN_MOTION_DOT": 1.621e-05, "MEAN_MOTION_DDOT": 0}, "tle": {"line1": "1 34990U 93036AFN 25347.97993074  .00001621  00000+0  49749-3 0  9990", "line2": "2 34990  74.0455 249.0358 0016520 311.5177  48.4561 14.42379588873649"}}, "geometry": {"type": "Point", "coordinates": [-97.95883441841903, 42.51702385753152]}}, {"type": "Feature", "properties": {"norad_id": 34997, "name": "COSMOS 2251 DEB", "group": "cosmos-2251-debris", "lat": -54.04706931114055, "lon": 150.12514225161746, "alt_km": 696.230784836579, "timestamp": "2025-12-15T04:01:20.847768+00:00", "meta": {"OBJECT_NAME": "COSMOS 2251 DEB", "OBJECT_ID": "1993-036AFV", "EPOCH": "2025-12-14T03:40:01.084512", "MEAN_MOTION": 14.45585468, "ECCENTRICITY": 0.00977103, "INCLINATION": 73.8806, "RA_OF_ASC_NODE": 308.5363, "ARG_OF_PERICENTER": 283.3348, "MEAN_ANOMALY": 75.6929, "EPHEMERIS_TYPE": 0, "CLASSIFICATION_TYPE": "U", "NORAD_CAT_ID": 34997, "ELEMENT_SET_NO": 999, "REV_AT_EPOCH": 70767, "BSTAR": 0.0019000145, "MEAN_MOTION_DOT": 7.095e-05, "MEAN_MOTION_DDOT": 0}, "tle": {"line1": "1 34997U 93036AFV 25348.15279033  .00007095  00000+0  19000-2 0  9997", "line2": "2 34997  73.8806 308.5363 0097710 283.3348  75.6929 14.45585468707674"}}, "geometry": {"type": "Point", "coordinates": [150.12514225161746, -54.04706931114055]}}, {"type": "Feature", "properties": {"norad_id": 34998, "name": "COSMOS 2251 DEB", "group": "cosmos-2251-debris", "lat": 29.09225254749811, "lon": -33.757198047852825, "alt_km": 739.3508224980696, "timestamp": "2025-12-15T04:01:20.847779+00:00", "meta": {"OBJECT_NAME": "COSMOS 2251 DEB", "OBJECT_ID": "1993-036AFW", "EPOCH": "2025-12-13T22:12:36.791712", "MEAN_MOTION": 14.49287964, "ECCENTRICITY": 0.00211796, "INCLINATION": 74.0097, "RA_OF_ASC_NODE": 157.7564, "ARG_OF_PERICENTER": 303.0269, "MEAN_ANOMALY": 208.2517, "EPHEMERIS_TYPE": 0, "CLASSIFICATION_TYPE": "U", "NORAD_CAT_ID": 34998, "ELEMENT_SET_NO": 999, "REV_AT_EPOCH": 87437, "BSTAR": 0.00072323889, "MEAN_MOTION_DOT": 2.74e-05, "MEAN_MOTION_DDOT": 0}, "tle": {"line1": "1 34998U 93036AFW 25347.92542583  .00002740  00000+0  72324-3 0  9996", "line2": "2 34998  74.0097 157.7564 0021179 303.0269 208.2517 14.49287964874378"}}, "geometry": {"type": "Point", "coordinates": [-33.757198047852825, 29.09225254749811]}}, {"type": "Feature", "properties": {"norad_id": 35000, "name": "COSMOS 2251 DEB", "group": "cosmos-2251-debris", "lat": 53.693605936658464, "lon": -144.8699808729309, "alt_km": 213.89780878291094, "timestamp": "2025-12-15T04:01:20.847789+00:00", "meta": {"OBJECT_NAME": "COSMOS 2251 DEB", "OBJECT_ID": "1993-036AFY", "EPOCH": "2025-12-10T00:39:45.535104", "MEAN_MOTION": 15.84722247, "ECCENTRICITY": 0.00096992, "INCLINATION": 73.9939, "RA_OF_ASC_NODE": 204.1935, "ARG_OF_PERICENTER": 175.3945, "MEAN_ANOMALY": 184.7377, "EPHEMERIS_TYPE": 0, "CLASSIFICATION_TYPE": "U", "NORAD_CAT_ID": 35000, "ELEMENT_SET_NO": 999, "REV_AT_EPOCH": 88472, "BSTAR": 0.007821664, "MEAN_MOTION_DOT": 0.0209211, "MEAN_MOTION_DDOT": 0}, "tle": {"line1": "1 35000U 93036AFY 25344.02761036  .02092110  00000+0  78217-2 0  9993", "line2": "2 35000  73.9939 204.1935 0009699 175.3945 184.7377 15.84722247884729"}}, "geometry": {"type": "Point", "coordinates": [-144.8699808729309, 53.693605936658464]}}, {"type": "Feature", "properties": {"norad_id": 35012, "name": "COSMOS 2251 DEB", "group": "cosmos-2251-debris", "lat": 74.01061141248435, "lon": -162.43579775538296, "alt_km": 786.1129470680771, "timestamp": "2025-12-15T04:01:20.847799+00:00", "meta": {"OBJECT_NAME": "COSMOS 2251 DEB", "OBJECT_ID": "1993-036AFZ", "EPOCH": "2025-12-14T07:40:13.092672", "MEAN_MOTION": 14.45551541, "ECCENTRICITY": 0.00816456, "INCLINATION": 74.0208, "RA_OF_ASC_NODE": 108.7882, "ARG_OF_PERICENTER": 248.626, "MEAN_ANOMALY": 110.6172, "EPHEMERIS_TYPE": 0, "CLASSIFICATION_TYPE": "U", "NORAD_CAT_ID": 35012, "ELEMENT_SET_NO": 999, "REV_AT_EPOCH": 87584, "BSTAR": 0.00024812015, "MEAN_MOTION_DOT": 8.83e-06, "MEAN_MOTION_DDOT": 0}, "tle": {"line1": "1 35012U 93036AFZ 25348.31959598  .00000883  00000+0  24812-3 0  9991", "line2": "2 35012  74.0208 108.7882 0081645 248.6260 110.6172 14.45551541875845"}}, "geometry": {"type": "Point", "coordinates": [-162.43579775538296, 74.01061141248435]}}, {"type": "Feature", "properties": {"norad_id": 35014, "name": "COSMOS 2251 DEB", "group": "cosmos-2251-debris", "lat": 72.91159277855162, "lon": 149.80972547791947, "alt_km": 639.4058203187933, "timestamp": "2025-12-15T04:01:20.847809+00:00", "meta": {"OBJECT_NAME": "COSMOS 2251 DEB", "OBJECT_ID": "1993-036AGB", "EPOCH": "2025-12-10T11:17:04.408224", "MEAN_MOTION": 14.75108648, "ECCENTRICITY": 0.0007489, "INCLINATION": 73.9993, "RA_OF_ASC_NODE": 47.9831, "ARG_OF_PERICENTER": 224.1256, "MEAN_ANOMALY": 135.932, "EPHEMERIS_TYPE": 0, "CLASSIFICATION_TYPE": "U", "NORAD_CAT_ID": 35014, "ELEMENT_SET_NO": 999, "REV_AT_EPOCH": 71303, "BSTAR": 0.0024781418, "MEAN_MOTION_DOT": 0.00016732, "MEAN_MOTION_DDOT": 0}, "tle": {"line1": "1 35014U 93036AGB 25344.47018991  .00016732  00000+0  24781-2 0  9993", "line2": "2 35014  73.9993  47.9831 0007489 224.1256 135.9320 14.75108648713038"}}, "geometry": {"type": "Point", "coordinates": [149.80972547791947, 72.91159277855162]}}, {"type": "Feature", "properties": {"norad_id": 35015, "name": "COSMOS 2251 DEB", "group": "cosmos-2251-debris", "lat": -54.936143945105115, "lon": 74.38805309291884, "alt_km": 782.6045143017463, "timestamp": "2025-12-15T04:01:20.847819+00:00", "meta": {"OBJECT_NAME": "COSMOS 2251 DEB", "OBJECT_ID": "1993-036AGC", "EPOCH": "2025-12-08T23:19:05.687904", "MEAN_MOTION": 14.46841193, "ECCENTRICITY": 0.0074204, "INCLINATION": 73.9478, "RA_OF_ASC_NODE": 241.8046, "ARG_OF_PERICENTER": 111.6456, "MEAN_ANOMALY": 265.9615, "EPHEMERIS_TYPE": 0, "CLASSIFICATION_TYPE": "U", "NORAD_CAT_ID": 35015, "ELEMENT_SET_NO": 999, "REV_AT_EPOCH": 65386, "BSTAR": 0.00095869, "MEAN_MOTION_DOT": 3.57e-05, "MEAN_MOTION_DDOT": 0}, "tle": {"line1": "1 35015U 93036AGC 25342.97159361  .00003570  00000+0  95869-3 0  9996", "line2": "2 35015  73.9478 241.8046 0074204 111.6456 265.9615 14.46841193653863"}}, "geometry": {"type": "Point", "coordinates": [74.38805309291884, -54.936143945105115]}}, {"type": "Feature", "properties": {"norad_id": 35016, "name": "COSMOS 2251 DEB", "group": "cosmos-2251-debris", "lat": 23.252560246174816, "lon": 102.82784973425332, "alt_km": 721.6867011838531, "timestamp": "2025-12-15T04:01:20.847829+00:00", "meta": {"OBJECT_NAME": "COSMOS 2251 DEB", "OBJECT_ID": "1993-036AGD", "EPOCH": "2025-12-14T02:16:26.241888", "MEAN_MOTION": 14.35063892, "ECCENTRICITY": 0.01144313, "INCLINATION": 73.93, "RA_OF_ASC_NODE": 291.9217, "ARG_OF_PERICENTER": 208.6203, "MEAN_ANOMALY": 167.6229, "EPHEMERIS_TYPE": 0, "CLASSIFICATION_TYPE": "U", "NORAD_CAT_ID": 35016, "ELEMENT_SET_NO": 999, "REV_AT_EPOCH": 86802, "BSTAR": 0.00044092962, "MEAN_MOTION_DOT": 1.326e-05, "MEAN_MOTION_DDOT": 0}, "tle": {"line1": "1 35016U 93036AGD 25348.09474817  .00001326  00000+0  44093-3 0  9992", "line2": "2 35016  73.9300 291.9217 0114431 208.6203 167.6229 14.35063892868023"}}, "geometry": {"type": "Point", "coordinates": [102.82784973425332, 23.252560246174816]}}, {"type": "Feature", "properties": {"norad_id": 35018, "name": "COSMOS 2251 DEB", "group": "cosmos-2251-debris", "lat": 22.64395900883527, "lon": 112.8696594280245, "alt_km": 754.5697077518744, "timestamp": "2025-12-15T04:01:20.847839+00:00", "meta": {"OBJECT_NAME": "COSMOS 2251 DEB", "OBJECT_ID": "1993-036AGF", "EPOCH": "2025-12-14T01:34:23.097504", "MEAN_MOTION": 13.6711728, "ECCENTRICITY": 0.03485759, "INCLINATION": 73.9758, "RA_OF_ASC_NODE": 107.7987, "ARG_OF_PERICENTER": 16.6862, "MEAN_ANOMALY": 344.5383, "EPHEMERIS_TYPE": 0, "CLASSIFICATION_TYPE": "U", "NORAD_CAT_ID": 35018, "ELEMENT_SET_NO": 999, "REV_AT_EPOCH": 83204, "BSTAR": 0.00097087301, "MEAN_MOTION_DOT": 1.216e-05, "MEAN_MOTION_DDOT": 0}, "tle": {"line1": "1 35018U 93036AGF 25348.06554511  .00001216  00000+0  97087-3 0  9990", "line2": "2 35018  73.9758 107.7987 0348575  16.6862 344.5383 13.67117280832041"}}, "geometry": {"type": "Point", "coordinates": [112.8696594280245, 22.64395900883527]}}]}